SL-14 R/B               
1 16792U 86046B   26018.55973200  .00000442  00000+0  48079-4 0  9998
2 16792  82.4836 127.5436 0023962  36.8294 323.4562 14.85530706118969
SL-14 R/B               
1 16882U 86055B   26018.48925315  .00000506  00000+0  55533-4 0  9998
2 16882  82.5210 173.8397 0019947 135.2678 284.5272 14.85574899111918
AJISAI (EGS)            
1 16908U 86061A   26018.67724197 -.00000068  00000+0  20602-3 0  9992
2 16908  50.0072 247.1380 0011289 158.7105 239.1403 12.44515077461776
COSMOS 1812             
1 17295U 87003A   26018.65379853  .00143530  00000+0  60489-3 0  9990
2 17295  82.4824 251.7875 0002335  44.2492 315.8964 15.85058832136480
SL-14 R/B               
1 17567U 87024B   26018.61136885  .00000492  00000+0  53272-4 0  9999
2 17567  82.5302 139.8193 0019622  68.5234 291.8072 14.86071174 80691
COSMOS 1833             
1 17589U 87027A   26018.59967571  .00000299  00000+0  18544-3 0  9994
2 17589  70.9193  71.2971 0024280 281.0784  78.7606 14.13046450  3245
SL-16 R/B               
1 17590U 87027B   26018.36545753 -.00000211  00000+0 -81046-4 0  9999
2 17590  71.0033  22.5386 0006336 220.3489 139.7166 14.17159840  8214
SL-14 R/B               
1 17912U 87038B   26018.37842207  .00000511  00000+0  56518-4 0  9991
2 17912  82.5029 344.1884 0018623 335.5405  24.4925 14.85304133 71764
COSMOS 1844             
1 17973U 87041A   26018.61694989 -.00000309  00000+0 -13513-3 0  9995
2 17973  70.8995 139.7930 0028260  98.2556 262.1773 14.14536262996503
SL-14 R/B               
1 18153U 87055B   26018.56605762  .00000400  00000+0  43338-4 0  9995
2 18153  82.4975  36.2741 0020760 175.0409 185.1017 14.85561325 62493
COSMOS 1867             
1 18187U 87060A   26018.55996961 -.00000031  00000+0  25915-4 0  9993
2 18187  65.0108  87.0921 0013891 274.6583  85.2915 14.31493130 12766
SL-14 R/B               
1 18749U 88001B   26018.55804278  .00000388  00000+0  42042-4 0  9996
2 18749  82.5111 242.5177 0019205  47.4306 312.8527 14.85463995 34580
