CCSDS_OMM_VERS = 2.0
CREATION_DATE  = 
ORIGINATOR     = 

OBJECT_NAME    = SL-14 R/B
OBJECT_ID      = 1986-046B
CENTER_NAME    = EARTH
REF_FRAME      = TEME
TIME_SYSTEM    = UTC
MEAN_ELEMENT_THEORY = SGP/SGP4

EPOCH          = 2026-01-18T13:26:00.844800
MEAN_MOTION    = 14.85530706
ECCENTRICITY   = .00239623
INCLINATION    = 82.4836
RA_OF_ASC_NODE = 127.5436
ARG_OF_PERICENTER = 36.8294
MEAN_ANOMALY   = 323.4562

EPHEMERIS_TYPE = 0
CLASSIFICATION_TYPE = U
NORAD_CAT_ID   = 16792
ELEMENT_SET_NO = 999
REV_AT_EPOCH   = 11896
BSTAR          = .48078591E-4
MEAN_MOTION_DOT = .442E-5
MEAN_MOTION_DDOT = 0

CCSDS_OMM_VERS = 2.0
CREATION_DATE  = 
ORIGINATOR     = 

OBJECT_NAME    = SL-14 R/B
OBJECT_ID      = 1986-055B
CENTER_NAME    = EARTH
REF_FRAME      = TEME
TIME_SYSTEM    = UTC
MEAN_ELEMENT_THEORY = SGP/SGP4

EPOCH          = 2026-01-18T11:44:31.472160
MEAN_MOTION    = 14.85574899
ECCENTRICITY   = .0019947
INCLINATION    = 82.5210
RA_OF_ASC_NODE = 173.8397
ARG_OF_PERICENTER = 135.2678
MEAN_ANOMALY   = 284.5272

EPHEMERIS_TYPE = 0
CLASSIFICATION_TYPE = U
NORAD_CAT_ID   = 16882
ELEMENT_SET_NO = 999
REV_AT_EPOCH   = 11191
BSTAR          = .55533151E-4
MEAN_MOTION_DOT = .506E-5
MEAN_MOTION_DDOT = 0

CCSDS_OMM_VERS = 2.0
CREATION_DATE  = 
ORIGINATOR     = 

OBJECT_NAME    = AJISAI (EGS)
OBJECT_ID      = 1986-061A
CENTER_NAME    = EARTH
REF_FRAME      = TEME
TIME_SYSTEM    = UTC
MEAN_ELEMENT_THEORY = SGP/SGP4

EPOCH          = 2026-01-18T16:15:13.706208
MEAN_MOTION    = 12.44515077
ECCENTRICITY   = .00112898
INCLINATION    = 50.0072
RA_OF_ASC_NODE = 247.1380
ARG_OF_PERICENTER = 158.7105
MEAN_ANOMALY   = 239.1403

EPHEMERIS_TYPE = 0
CLASSIFICATION_TYPE = U
NORAD_CAT_ID   = 16908
ELEMENT_SET_NO = 999
REV_AT_EPOCH   = 46177
BSTAR          = .20601891E-3
MEAN_MOTION_DOT = -.68E-6
MEAN_MOTION_DDOT = 0

CCSDS_OMM_VERS = 2.0
CREATION_DATE  = 
ORIGINATOR     = 

OBJECT_NAME    = COSMOS 1812
OBJECT_ID      = 1987-003A
CENTER_NAME    = EARTH
REF_FRAME      = TEME
TIME_SYSTEM    = UTC
MEAN_ELEMENT_THEORY = SGP/SGP4

EPOCH          = 2026-01-18T15:41:28.192992
MEAN_MOTION    = 15.85058832
ECCENTRICITY   = .00023351
INCLINATION    = 82.4824
RA_OF_ASC_NODE = 251.7875
ARG_OF_PERICENTER = 44.2492
MEAN_ANOMALY   = 315.8964

EPHEMERIS_TYPE = 0
CLASSIFICATION_TYPE = U
NORAD_CAT_ID   = 17295
ELEMENT_SET_NO = 999
REV_AT_EPOCH   = 13648
BSTAR          = .60489155E-3
MEAN_MOTION_DOT = .14353E-2
MEAN_MOTION_DDOT = 0

CCSDS_OMM_VERS = 2.0
CREATION_DATE  = 
ORIGINATOR     = 

OBJECT_NAME    = SL-14 R/B
OBJECT_ID      = 1987-024B
CENTER_NAME    = EARTH
REF_FRAME      = TEME
TIME_SYSTEM    = UTC
MEAN_ELEMENT_THEORY = SGP/SGP4

EPOCH          = 2026-01-18T14:40:22.268640
MEAN_MOTION    = 14.86071174
ECCENTRICITY   = .00196228
INCLINATION    = 82.5302
RA_OF_ASC_NODE = 139.8193
ARG_OF_PERICENTER = 68.5234
MEAN_ANOMALY   = 291.8072

EPHEMERIS_TYPE = 0
CLASSIFICATION_TYPE = U
NORAD_CAT_ID   = 17567
ELEMENT_SET_NO = 999
REV_AT_EPOCH   = 8069
BSTAR          = .53272369E-4
MEAN_MOTION_DOT = .492E-5
MEAN_MOTION_DDOT = 0

CCSDS_OMM_VERS = 2.0
CREATION_DATE  = 
ORIGINATOR     = 

OBJECT_NAME    = COSMOS 1833
OBJECT_ID      = 1987-027A
CENTER_NAME    = EARTH
REF_FRAME      = TEME
TIME_SYSTEM    = UTC
MEAN_ELEMENT_THEORY = SGP/SGP4

EPOCH          = 2026-01-18T14:23:31.981344
MEAN_MOTION    = 14.13046450
ECCENTRICITY   = .00242807
INCLINATION    = 70.9193
RA_OF_ASC_NODE = 71.2971
ARG_OF_PERICENTER = 281.0784
MEAN_ANOMALY   = 78.7606

EPHEMERIS_TYPE = 0
CLASSIFICATION_TYPE = U
NORAD_CAT_ID   = 17589
ELEMENT_SET_NO = 999
REV_AT_EPOCH   = 324
BSTAR          = .18544106E-3
MEAN_MOTION_DOT = .299E-5
MEAN_MOTION_DDOT = 0

CCSDS_OMM_VERS = 2.0
CREATION_DATE  = 
ORIGINATOR     = 

OBJECT_NAME    = SL-16 R/B
OBJECT_ID      = 1987-027B
CENTER_NAME    = EARTH
REF_FRAME      = TEME
TIME_SYSTEM    = UTC
MEAN_ELEMENT_THEORY = SGP/SGP4

EPOCH          = 2026-01-18T08:46:15.530592
MEAN_MOTION    = 14.17159840
ECCENTRICITY   = .00063368
INCLINATION    = 71.0033
RA_OF_ASC_NODE = 22.5386
ARG_OF_PERICENTER = 220.3489
MEAN_ANOMALY   = 139.7166

EPHEMERIS_TYPE = 0
CLASSIFICATION_TYPE = U
NORAD_CAT_ID   = 17590
ELEMENT_SET_NO = 999
REV_AT_EPOCH   = 821
BSTAR          = -.81045857E-4
MEAN_MOTION_DOT = -.211E-5
MEAN_MOTION_DDOT = 0

CCSDS_OMM_VERS = 2.0
CREATION_DATE  = 
ORIGINATOR     = 

OBJECT_NAME    = SL-14 R/B
OBJECT_ID      = 1987-038B
CENTER_NAME    = EARTH
REF_FRAME      = TEME
TIME_SYSTEM    = UTC
MEAN_ELEMENT_THEORY = SGP/SGP4

EPOCH          = 2026-01-18T09:04:55.666848
MEAN_MOTION    = 14.85304133
ECCENTRICITY   = .00186234
INCLINATION    = 82.5029
RA_OF_ASC_NODE = 344.1884
ARG_OF_PERICENTER = 335.5405
MEAN_ANOMALY   = 24.4925

EPHEMERIS_TYPE = 0
CLASSIFICATION_TYPE = U
NORAD_CAT_ID   = 17912
ELEMENT_SET_NO = 999
REV_AT_EPOCH   = 7176
BSTAR          = .5651825E-4
MEAN_MOTION_DOT = .511E-5
MEAN_MOTION_DDOT = 0

CCSDS_OMM_VERS = 2.0
CREATION_DATE  = 
ORIGINATOR     = 

OBJECT_NAME    = COSMOS 1844
OBJECT_ID      = 1987-041A
CENTER_NAME    = EARTH
REF_FRAME      = TEME
TIME_SYSTEM    = UTC
MEAN_ELEMENT_THEORY = SGP/SGP4

EPOCH          = 2026-01-18T14:48:24.470496
MEAN_MOTION    = 14.14536262
ECCENTRICITY   = .00282608
INCLINATION    = 70.8995
RA_OF_ASC_NODE = 139.7930
ARG_OF_PERICENTER = 98.2556
MEAN_ANOMALY   = 262.1773

EPHEMERIS_TYPE = 0
CLASSIFICATION_TYPE = U
NORAD_CAT_ID   = 17973
ELEMENT_SET_NO = 999
REV_AT_EPOCH   = 99650
BSTAR          = -.13513466E-3
MEAN_MOTION_DOT = -.309E-5
MEAN_MOTION_DDOT = 0

CCSDS_OMM_VERS = 2.0
CREATION_DATE  = 
ORIGINATOR     = 

OBJECT_NAME    = SL-14 R/B
OBJECT_ID      = 1987-055B
CENTER_NAME    = EARTH
REF_FRAME      = TEME
TIME_SYSTEM    = UTC
MEAN_ELEMENT_THEORY = SGP/SGP4

EPOCH          = 2026-01-18T13:35:07.378368
MEAN_MOTION    = 14.85561325
ECCENTRICITY   = .00207604
INCLINATION    = 82.4975
RA_OF_ASC_NODE = 36.2741
ARG_OF_PERICENTER = 175.0409
MEAN_ANOMALY   = 185.1017

EPHEMERIS_TYPE = 0
CLASSIFICATION_TYPE = U
NORAD_CAT_ID   = 18153
ELEMENT_SET_NO = 999
REV_AT_EPOCH   = 6249
BSTAR          = .43337569E-4
MEAN_MOTION_DOT = .4E-5
MEAN_MOTION_DDOT = 0

CCSDS_OMM_VERS = 2.0
CREATION_DATE  = 
ORIGINATOR     = 

OBJECT_NAME    = COSMOS 1867
OBJECT_ID      = 1987-060A
CENTER_NAME    = EARTH
REF_FRAME      = TEME
TIME_SYSTEM    = UTC
MEAN_ELEMENT_THEORY = SGP/SGP4

EPOCH          = 2026-01-18T13:26:21.374304
MEAN_MOTION    = 14.31493130
ECCENTRICITY   = .00138918
INCLINATION    = 65.0108
RA_OF_ASC_NODE = 87.0921
ARG_OF_PERICENTER = 274.6583
MEAN_ANOMALY   = 85.2915

EPHEMERIS_TYPE = 0
CLASSIFICATION_TYPE = U
NORAD_CAT_ID   = 18187
ELEMENT_SET_NO = 999
REV_AT_EPOCH   = 1276
BSTAR          = .25915454E-4
MEAN_MOTION_DOT = -.31E-6
MEAN_MOTION_DDOT = 0

CCSDS_OMM_VERS = 2.0
CREATION_DATE  = 
ORIGINATOR     = 

OBJECT_NAME    = SL-14 R/B
OBJECT_ID      = 1988-001B
CENTER_NAME    = EARTH
REF_FRAME      = TEME
TIME_SYSTEM    = UTC
MEAN_ELEMENT_THEORY = SGP/SGP4

EPOCH          = 2026-01-18T13:23:34.896192
MEAN_MOTION    = 14.85463995
ECCENTRICITY   = .00192058
INCLINATION    = 82.5111
RA_OF_ASC_NODE = 242.5177
ARG_OF_PERICENTER = 47.4306
MEAN_ANOMALY   = 312.8527

EPHEMERIS_TYPE = 0
CLASSIFICATION_TYPE = U
NORAD_CAT_ID   = 18749
ELEMENT_SET_NO = 999
REV_AT_EPOCH   = 3458
BSTAR          = .42041933E-4
MEAN_MOTION_DOT = .388E-5
MEAN_MOTION_DDOT = 0

